CCSDS_OMM_VERS = 2.0
CREATION_DATE  = 
ORIGINATOR     = 

OBJECT_NAME    = STARLINK-36602
OBJECT_ID      = 2026-033AE
CENTER_NAME    = EARTH
REF_FRAME      = TEME
TIME_SYSTEM    = UTC
MEAN_ELEMENT_THEORY = SGP/SGP4

EPOCH          = 2026-03-13T14:00:01.000224
MEAN_MOTION    = 15.67222891
ECCENTRICITY   = .00014701
INCLINATION    = 42.9993
RA_OF_ASC_NODE = 247.6203
ARG_OF_PERICENTER = 258.8884
MEAN_ANOMALY   = 334.0268

EPHEMERIS_TYPE = 0
CLASSIFICATION_TYPE = U
NORAD_CAT_ID   = 67849
ELEMENT_SET_NO = 999
REV_AT_EPOCH   = 529
BSTAR          = -.19943963E-1
MEAN_MOTION_DOT = -.1947298E-1
MEAN_MOTION_DDOT = 0

CCSDS_OMM_VERS = 2.0
CREATION_DATE  = 
ORIGINATOR     = 

OBJECT_NAME    = STARLINK-36840
OBJECT_ID      = 2026-034A
CENTER_NAME    = EARTH
REF_FRAME      = TEME
TIME_SYSTEM    = UTC
MEAN_ELEMENT_THEORY = SGP/SGP4

EPOCH          = 2026-03-13T14:06:44.629920
MEAN_MOTION    = 15.80985451
ECCENTRICITY   = .00014617
INCLINATION    = 53.1580
RA_OF_ASC_NODE = 191.8214
ARG_OF_PERICENTER = 57.2111
MEAN_ANOMALY   = 302.9053

EPHEMERIS_TYPE = 0
CLASSIFICATION_TYPE = U
NORAD_CAT_ID   = 67850
ELEMENT_SET_NO = 999
REV_AT_EPOCH   = 455
BSTAR          = .15555529E-2
MEAN_MOTION_DOT = .319604E-2
MEAN_MOTION_DDOT = 0

CCSDS_OMM_VERS = 2.0
CREATION_DATE  = 
ORIGINATOR     = 

OBJECT_NAME    = STARLINK-36348
OBJECT_ID      = 2026-034B
CENTER_NAME    = EARTH
REF_FRAME      = TEME
TIME_SYSTEM    = UTC
MEAN_ELEMENT_THEORY = SGP/SGP4

EPOCH          = 2026-03-13T14:05:40.052832
MEAN_MOTION    = 15.80958264
ECCENTRICITY   = .00018254
INCLINATION    = 53.1586
RA_OF_ASC_NODE = 191.8166
ARG_OF_PERICENTER = 34.0703
MEAN_ANOMALY   = 326.0437

EPHEMERIS_TYPE = 0
CLASSIFICATION_TYPE = U
NORAD_CAT_ID   = 67851
ELEMENT_SET_NO = 999
REV_AT_EPOCH   = 455
BSTAR          = .12686327E-2
MEAN_MOTION_DOT = .258337E-2
MEAN_MOTION_DDOT = 0

CCSDS_OMM_VERS = 2.0
CREATION_DATE  = 
ORIGINATOR     = 

OBJECT_NAME    = STARLINK-36276
OBJECT_ID      = 2026-034C
CENTER_NAME    = EARTH
REF_FRAME      = TEME
TIME_SYSTEM    = UTC
MEAN_ELEMENT_THEORY = SGP/SGP4

EPOCH          = 2026-03-13T14:04:35.144832
MEAN_MOTION    = 15.80958735
ECCENTRICITY   = .00020626
INCLINATION    = 53.1587
RA_OF_ASC_NODE = 191.8109
ARG_OF_PERICENTER = 34.4078
MEAN_ANOMALY   = 325.7078

EPHEMERIS_TYPE = 0
CLASSIFICATION_TYPE = U
NORAD_CAT_ID   = 67852
ELEMENT_SET_NO = 999
REV_AT_EPOCH   = 455
BSTAR          = .11469803E-2
MEAN_MOTION_DOT = .232808E-2
MEAN_MOTION_DDOT = 0

CCSDS_OMM_VERS = 2.0
CREATION_DATE  = 
ORIGINATOR     = 

OBJECT_NAME    = STARLINK-36785
OBJECT_ID      = 2026-034D
CENTER_NAME    = EARTH
REF_FRAME      = TEME
TIME_SYSTEM    = UTC
MEAN_ELEMENT_THEORY = SGP/SGP4

EPOCH          = 2026-03-13T14:03:30.180672
MEAN_MOTION    = 15.80967855
ECCENTRICITY   = .00015667
INCLINATION    = 53.1586
RA_OF_ASC_NODE = 191.8063
ARG_OF_PERICENTER = 24.6405
MEAN_ANOMALY   = 335.4692

EPHEMERIS_TYPE = 0
CLASSIFICATION_TYPE = U
NORAD_CAT_ID   = 67853
ELEMENT_SET_NO = 999
REV_AT_EPOCH   = 455
BSTAR          = .12504284E-2
MEAN_MOTION_DOT = .25462E-2
MEAN_MOTION_DDOT = 0

CCSDS_OMM_VERS = 2.0
CREATION_DATE  = 
ORIGINATOR     = 

OBJECT_NAME    = STARLINK-36608
OBJECT_ID      = 2026-034E
CENTER_NAME    = EARTH
REF_FRAME      = TEME
TIME_SYSTEM    = UTC
MEAN_ELEMENT_THEORY = SGP/SGP4

EPOCH          = 2026-03-13T14:02:25.445472
MEAN_MOTION    = 15.80960900
ECCENTRICITY   = .00012811
INCLINATION    = 53.1585
RA_OF_ASC_NODE = 191.8011
ARG_OF_PERICENTER = 60.1409
MEAN_ANOMALY   = 299.9741

EPHEMERIS_TYPE = 0
CLASSIFICATION_TYPE = U
NORAD_CAT_ID   = 67854
ELEMENT_SET_NO = 999
REV_AT_EPOCH   = 454
BSTAR          = .11498948E-2
MEAN_MOTION_DOT = .233437E-2
MEAN_MOTION_DDOT = 0

CCSDS_OMM_VERS = 2.0
CREATION_DATE  = 
ORIGINATOR     = 

OBJECT_NAME    = STARLINK-36838
OBJECT_ID      = 2026-034F
CENTER_NAME    = EARTH
REF_FRAME      = TEME
TIME_SYSTEM    = UTC
MEAN_ELEMENT_THEORY = SGP/SGP4

EPOCH          = 2026-03-13T14:01:20.788032
MEAN_MOTION    = 15.80950893
ECCENTRICITY   = .00015363
INCLINATION    = 53.1586
RA_OF_ASC_NODE = 191.7955
ARG_OF_PERICENTER = 51.8774
MEAN_ANOMALY   = 308.2387

EPHEMERIS_TYPE = 0
CLASSIFICATION_TYPE = U
NORAD_CAT_ID   = 67855
ELEMENT_SET_NO = 999
REV_AT_EPOCH   = 455
BSTAR          = .11470203E-2
MEAN_MOTION_DOT = .232726E-2
MEAN_MOTION_DDOT = 0

CCSDS_OMM_VERS = 2.0
CREATION_DATE  = 
ORIGINATOR     = 

OBJECT_NAME    = STARLINK-36843
OBJECT_ID      = 2026-034G
CENTER_NAME    = EARTH
REF_FRAME      = TEME
TIME_SYSTEM    = UTC
MEAN_ELEMENT_THEORY = SGP/SGP4

EPOCH          = 2026-03-13T13:59:11.063616
MEAN_MOTION    = 15.80951987
ECCENTRICITY   = .00013775
INCLINATION    = 53.1585
RA_OF_ASC_NODE = 191.7854
ARG_OF_PERICENTER = 61.2791
MEAN_ANOMALY   = 298.8371

EPHEMERIS_TYPE = 0
CLASSIFICATION_TYPE = U
NORAD_CAT_ID   = 67856
ELEMENT_SET_NO = 999
REV_AT_EPOCH   = 455
BSTAR          = .1107901E-2
MEAN_MOTION_DOT = .224561E-2
MEAN_MOTION_DDOT = 0

CCSDS_OMM_VERS = 2.0
CREATION_DATE  = 
ORIGINATOR     = 

OBJECT_NAME    = STARLINK-36828
OBJECT_ID      = 2026-034H
CENTER_NAME    = EARTH
REF_FRAME      = TEME
TIME_SYSTEM    = UTC
MEAN_ELEMENT_THEORY = SGP/SGP4

EPOCH          = 2026-03-13T12:29:13.303968
MEAN_MOTION    = 15.80957253
ECCENTRICITY   = .00011432
INCLINATION    = 53.1584
RA_OF_ASC_NODE = 192.1072
ARG_OF_PERICENTER = 112.6658
MEAN_ANOMALY   = 247.4486

EPHEMERIS_TYPE = 0
CLASSIFICATION_TYPE = U
NORAD_CAT_ID   = 67857
ELEMENT_SET_NO = 999
REV_AT_EPOCH   = 454
BSTAR          = .10333954E-2
MEAN_MOTION_DOT = .209084E-2
MEAN_MOTION_DDOT = 0

CCSDS_OMM_VERS = 2.0
CREATION_DATE  = 
ORIGINATOR     = 

OBJECT_NAME    = STARLINK-36837
OBJECT_ID      = 2026-034J
CENTER_NAME    = EARTH
REF_FRAME      = TEME
TIME_SYSTEM    = UTC
MEAN_ELEMENT_THEORY = SGP/SGP4

EPOCH          = 2026-03-13T13:58:06.242016
MEAN_MOTION    = 15.80958369
ECCENTRICITY   = .00015131
INCLINATION    = 53.1587
RA_OF_ASC_NODE = 191.7799
ARG_OF_PERICENTER = 70.2971
MEAN_ANOMALY   = 289.8215

EPHEMERIS_TYPE = 0
CLASSIFICATION_TYPE = U
NORAD_CAT_ID   = 67858
ELEMENT_SET_NO = 999
REV_AT_EPOCH   = 455
BSTAR          = .11861706E-2
MEAN_MOTION_DOT = .241009E-2
MEAN_MOTION_DDOT = 0

CCSDS_OMM_VERS = 2.0
CREATION_DATE  = 
ORIGINATOR     = 

OBJECT_NAME    = STARLINK-36393
OBJECT_ID      = 2026-034K
CENTER_NAME    = EARTH
REF_FRAME      = TEME
TIME_SYSTEM    = UTC
MEAN_ELEMENT_THEORY = SGP/SGP4

EPOCH          = 2026-03-13T13:57:01.496448
MEAN_MOTION    = 15.80951892
ECCENTRICITY   = .00014648
INCLINATION    = 53.1588
RA_OF_ASC_NODE = 191.7749
ARG_OF_PERICENTER = 69.5677
MEAN_ANOMALY   = 290.5503

EPHEMERIS_TYPE = 0
CLASSIFICATION_TYPE = U
NORAD_CAT_ID   = 67859
ELEMENT_SET_NO = 999
REV_AT_EPOCH   = 455
BSTAR          = .11612873E-2
MEAN_MOTION_DOT = .235722E-2
MEAN_MOTION_DDOT = 0

CCSDS_OMM_VERS = 2.0
CREATION_DATE  = 
ORIGINATOR     = 

OBJECT_NAME    = STARLINK-35873
OBJECT_ID      = 2026-034L
CENTER_NAME    = EARTH
REF_FRAME      = TEME
TIME_SYSTEM    = UTC
MEAN_ELEMENT_THEORY = SGP/SGP4

EPOCH          = 2026-03-13T13:55:56.628192
MEAN_MOTION    = 15.80940889
ECCENTRICITY   = .0001458
INCLINATION    = 53.1586
RA_OF_ASC_NODE = 191.7699
ARG_OF_PERICENTER = 81.6567
MEAN_ANOMALY   = 278.4621

EPHEMERIS_TYPE = 0
CLASSIFICATION_TYPE = U
NORAD_CAT_ID   = 67860
ELEMENT_SET_NO = 999
REV_AT_EPOCH   = 458
BSTAR          = .9148086E-3
MEAN_MOTION_DOT = .184337E-2
MEAN_MOTION_DDOT = 0

